OBJECT_NAME,OBJECT_ID,EPOCH,MEAN_MOTION,ECCENTRICITY,INCLINATION,RA_OF_ASC_NODE,ARG_OF_PERICENTER,MEAN_ANOMALY,EPHEMERIS_TYPE,CLASSIFICATION_TYPE,NORAD_CAT_ID,ELEMENT_SET_NO,REV_AT_EPOCH,BSTAR,MEAN_MOTION_DOT,MEAN_MOTION_DDOT
STARLINK-37715,2026-110C,2026-06-11T20:00:01.999008,15.45402025,.0001699,97.2844,359.2563,109.9058,262.7340,0,U,69126,999,479,-.56904E-1,-.241696E-1,0
STARLINK-37706,2026-110D,2026-06-11T20:00:01.999008,15.45743639,.00015,97.2852,359.2623,96.5061,288.3715,0,U,69127,999,479,-.55405E-1,-.2384821E-1,0
STARLINK-37723,2026-110E,2026-06-11T20:00:01.999008,15.46046340,.0001359,97.2841,359.2676,111.8893,285.8267,0,U,69128,999,479,-.55886E-1,-.2425628E-1,0
STARLINK-37720,2026-110F,2026-06-11T19:10:04.630080,15.49205825,.0001456,97.2852,358.9881,93.9908,266.1510,0,U,69129,999,476,.76514E-3,.41769E-3,0
STARLINK-37533,2026-110G,2026-06-11T20:00:01.999008,15.47092672,.0001359,97.2842,359.2834,89.7850,344.0017,0,U,69130,999,479,-.53489E-1,-.2409296E-1,0
STARLINK-37530,2026-110H,2026-06-11T20:00:01.999008,15.47416093,.0001584,97.2848,359.2892,81.1555,4.8188,0,U,69131,999,479,-.52765E-1,-.2404355E-1,0
STARLINK-37660,2026-110J,2026-06-11T20:00:01.999008,15.49177872,.0000763,97.2844,359.1996,109.1639,138.5711,0,U,69132,999,479,.16404E-2,.9012E-3,0
STARLINK-37633,2026-110K,2026-06-11T20:00:01.999008,15.49168126,.0001086,97.2842,359.2128,121.0203,157.6952,0,U,69133,999,479,.16181E-2,.88846E-3,0
STARLINK-37361,2026-110L,2026-06-11T20:00:01.999008,15.48495282,.0001763,97.2835,359.3034,80.6246,40.4466,0,U,69134,999,479,-.52225E-1,-.2464056E-1,0
STARLINK-37372,2026-110M,2026-06-11T20:00:01.999008,15.49132112,.0001031,97.2840,359.2210,96.3776,201.6709,0,U,69135,999,479,.14566E-2,.79779E-3,0
STARLINK-37531,2026-110N,2026-06-11T20:00:01.999008,15.49091408,.0001652,97.2841,359.2879,77.7689,15.5819,0,U,69136,999,479,.17277E-2,.94691E-3,0
STARLINK-37662,2026-110P,2026-06-11T20:00:01.999008,15.49172916,.0001684,97.2843,359.2228,65.5560,234.2123,0,U,69137,999,479,.16682E-2,.9165E-3,0
STARLINK-37658,2026-110Q,2026-06-11T20:00:01.999008,15.49128910,.0001002,97.2843,359.1483,108.4512,14.7722,0,U,69138,999,479,.18258E-2,.100273E-2,0
STARLINK-37659,2026-110R,2026-06-11T20:00:01.999008,15.49131271,.0001476,97.2848,359.1287,93.5891,346.7563,0,U,69139,999,479,.14003E-2,.7666E-3,0
STARLINK-37653,2026-110S,2026-06-11T16:36:50.483808,15.49206183,.0001138,97.2848,358.9810,110.0479,250.0895,0,U,69140,999,475,.10601E-2,.58028E-3,0
STARLINK-37654,2026-110T,2026-06-11T20:00:01.999008,15.49125829,.0001439,97.2843,359.2260,90.8809,218.5377,0,U,69141,999,479,.165E-2,.90487E-3,0
STARLINK-37655,2026-110U,2026-06-11T20:00:01.999008,15.49085026,.0000921,97.2843,359.2743,67.4395,353.3108,0,U,69142,999,479,.20174E-2,.110783E-2,0
STARLINK-37636,2026-110V,2026-06-11T20:00:01.999008,15.51658116,.0001975,97.2845,359.3458,90.7334,131.2664,0,U,69143,999,479,-.47389E-1,-.2497825E-1,0
STARLINK-37638,2026-110W,2026-06-11T20:00:01.999008,15.51938428,.0001998,97.2841,359.3512,90.2257,144.7151,0,U,69144,999,479,-.4718E-1,-.2510427E-1,0
STARLINK-37657,2026-110X,2026-06-11T20:00:01.999008,15.49122618,.0001821,97.2844,359.2268,91.2499,216.9877,0,U,69145,999,484,.16089E-2,.88194E-3,0
STARLINK-37639,2026-110Y,2026-06-11T20:00:01.999008,15.52744205,.0001988,97.2843,359.3601,95.7432,158.0640,0,U,69146,999,484,-.45563E-1,-.2449007E-1,0
STARLINK-37661,2026-110Z,2026-06-11T20:00:01.999008,15.49119674,.0001748,97.2847,359.1746,95.2257,93.5243,0,U,69147,999,484,.13387E-2,.73223E-3,0
STARLINK-37395,2026-111A,2026-06-11T13:56:11.614272,15.80899021,.0001872,53.1579,179.7589,86.8594,273.2643,0,U,69148,999,337,.12764E-2,.259241E-2,0
STARLINK-37346,2026-111B,2026-06-11T20:00:01.999008,15.67086152,.000107,53.1594,178.6212,91.5370,203.4761,0,U,69149,999,468,-.26975E-1,-.2554022E-1,0
STARLINK-37332,2026-111C,2026-06-11T20:00:01.999008,15.58422536,.0001393,53.1596,178.7951,85.6297,123.8584,0,U,69150,999,468,-.36888E-1,-.2488813E-1,0
STARLINK-37297,2026-111D,2026-06-11T13:54:22.345056,15.80992746,.0001133,53.1578,179.7507,74.0387,286.0760,0,U,69151,999,337,.16075E-2,.330851E-2,0
STARLINK-37317,2026-111E,2026-06-11T10:49:26.986656,15.80935647,.0001282,53.1577,180.3711,114.2040,245.9117,0,U,69152,999,335,.93962E-3,.189422E-2,0
STARLINK-37374,2026-111F,2026-06-11T20:00:01.999008,15.53627815,.0001243,53.1589,178.9308,76.0438,66.5956,0,U,69153,999,468,-.43394E-1,-.2501011E-1,0
STARLINK-37235,2026-111G,2026-06-11T20:00:01.999008,15.49851440,.0001135,53.1593,179.1611,121.2429,267.8661,0,U,69154,999,468,-.16184E-1,-.838711E-2,0
STARLINK-37329,2026-111H,2026-06-11T12:21:08.125632,15.80932346,.0000948,53.1578,180.0578,92.7826,267.3306,0,U,69155,999,336,.80103E-3,.160815E-2,0
