STARLINK-37715          
1 69126U 26110C   26162.83335647 -.02416960  00000+0 -56904-1 0  9994
2 69126  97.2844 359.2563 0001699 109.9058 262.7340 15.45402025  4792
STARLINK-37706          
1 69127U 26110D   26162.83335647 -.02384821  00000+0 -55405-1 0  9990
2 69127  97.2852 359.2623 0001500  96.5061 288.3715 15.45743639  4794
STARLINK-37723          
1 69128U 26110E   26162.83335647 -.02425628  00000+0 -55886-1 0  9995
2 69128  97.2841 359.2676 0001359 111.8893 285.8267 15.46046340  4797
STARLINK-37720          
1 69129U 26110F   26162.79866470  .00041769  00000+0  76514-3 0  9993
2 69129  97.2852 358.9881 0001456  93.9908 266.1510 15.49205825  4767
STARLINK-37533          
1 69130U 26110G   26162.83335647 -.02409296  00000+0 -53489-1 0  9998
2 69130  97.2842 359.2834 0001359  89.7850 344.0017 15.47092672  4794
STARLINK-37530          
1 69131U 26110H   26162.83335647 -.02404355  00000+0 -52765-1 0  9996
2 69131  97.2848 359.2892 0001584  81.1555   4.8188 15.47416093  4790
STARLINK-37660          
1 69132U 26110J   26162.83335647  .00090120  00000+0  16404-2 0  9995
2 69132  97.2844 359.1996 0000763 109.1639 138.5711 15.49177872  4791
STARLINK-37633          
1 69133U 26110K   26162.83335647  .00088846  00000+0  16181-2 0  9990
2 69133  97.2842 359.2128 0001086 121.0203 157.6952 15.49168126  4798
STARLINK-37361          
1 69134U 26110L   26162.83335647 -.02464056  00000+0 -52225-1 0  9994
2 69134  97.2835 359.3034 0001763  80.6246  40.4466 15.48495282  4791
STARLINK-37372          
1 69135U 26110M   26162.83335647  .00079779  00000+0  14566-2 0  9992
2 69135  97.2840 359.2210 0001031  96.3776 201.6709 15.49132112  4795
STARLINK-37531          
1 69136U 26110N   26162.83335647  .00094691  00000+0  17277-2 0  9995
2 69136  97.2841 359.2879 0001652  77.7689  15.5819 15.49091408  4799
STARLINK-37662          
1 69137U 26110P   26162.83335647  .00091650  00000+0  16682-2 0  9997
2 69137  97.2843 359.2228 0001684  65.5560 234.2123 15.49172916  4790
STARLINK-37658          
1 69138U 26110Q   26162.83335647  .00100273  00000+0  18258-2 0  9991
2 69138  97.2843 359.1483 0001002 108.4512  14.7722 15.49128910  4792
STARLINK-37659          
1 69139U 26110R   26162.83335647  .00076660  00000+0  14003-2 0  9998
2 69139  97.2848 359.1287 0001476  93.5891 346.7563 15.49131271  4794
STARLINK-37653          
1 69140U 26110S   26162.69225097  .00058028  00000+0  10601-2 0  9999
2 69140  97.2848 358.9810 0001138 110.0479 250.0895 15.49206183  4753
STARLINK-37654          
1 69141U 26110T   26162.83335647  .00090487  00000+0  16500-2 0  9998
2 69141  97.2843 359.2260 0001439  90.8809 218.5377 15.49125829  4793
STARLINK-37655          
1 69142U 26110U   26162.83335647  .00110783  00000+0  20174-2 0  9993
2 69142  97.2843 359.2743 0000921  67.4395 353.3108 15.49085026  4799
STARLINK-37636          
1 69143U 26110V   26162.83335647 -.02497825  00000+0 -47389-1 0  9999
2 69143  97.2845 359.3458 0001975  90.7334 131.2664 15.51658116  4797
STARLINK-37638          
1 69144U 26110W   26162.83335647 -.02510427  00000+0 -47180-1 0  9993
2 69144  97.2841 359.3512 0001998  90.2257 144.7151 15.51938428  4796
STARLINK-37657          
1 69145U 26110X   26162.83335647  .00088194  00000+0  16089-2 0  9996
2 69145  97.2844 359.2268 0001821  91.2499 216.9877 15.49122618  4847
STARLINK-37639          
1 69146U 26110Y   26162.83335647 -.02449007  00000+0 -45563-1 0  9993
2 69146  97.2843 359.3601 0001988  95.7432 158.0640 15.52744205  4849
STARLINK-37661          
1 69147U 26110Z   26162.83335647  .00073223  00000+0  13387-2 0  9993
2 69147  97.2847 359.1746 0001748  95.2257  93.5243 15.49119674  4840
STARLINK-37395          
1 69148U 26111A   26162.58068998  .00259241  00000+0  12764-2 0  9993
2 69148  53.1579 179.7589 0001872  86.8594 273.2643 15.80899021  3377
STARLINK-37346          
1 69149U 26111B   26162.83335647 -.02554022  00000+0 -26975-1 0  9997
2 69149  53.1594 178.6212 0001070  91.5370 203.4761 15.67086152  4680
STARLINK-37332          
1 69150U 26111C   26162.83335647 -.02488813  00000+0 -36888-1 0  9997
2 69150  53.1596 178.7951 0001393  85.6297 123.8584 15.58422536  4683
STARLINK-37297          
1 69151U 26111D   26162.57942529  .00330851  00000+0  16075-2 0  9993
2 69151  53.1578 179.7507 0001133  74.0387 286.0760 15.80992746  3379
STARLINK-37317          
1 69152U 26111E   26162.45100679  .00189422  00000+0  93962-3 0  9990
2 69152  53.1577 180.3711 0001282 114.2040 245.9117 15.80935647  3357
STARLINK-37374          
1 69153U 26111F   26162.83335647 -.02501011  00000+0 -43394-1 0  9996
2 69153  53.1589 178.9308 0001243  76.0438  66.5956 15.53627815  4689
STARLINK-37235          
1 69154U 26111G   26162.83335647 -.00838711  00000+0 -16184-1 0  9992
2 69154  53.1593 179.1611 0001135 121.2429 267.8661 15.49851440  4685
STARLINK-37329          
1 69155U 26111H   26162.51467738  .00160815  00000+0  80103-3 0  9990
2 69155  53.1578 180.0578 0000948  92.7826 267.3306 15.80932346  3361
